NORAD_CAT_ID,OBJECT_NAME,OBJECT_TYPE,EPOCH,MEAN_MOTION,ECCENTRICITY,INCLINATION,RA_OF_ASC_NODE,ARG_OF_PERICENTER,MEAN_ANOMALY,BSTAR,MEAN_MOTION_DOT,MEAN_MOTION_DDOT,TLE_LINE0,TLE_LINE1,TLE_LINE2,SEMIMAJOR_AXIS,PERIOD,APOGEE,PERIGEE,DECAYED
53602.0,STARLINK-4648,PAYLOAD,2023-04-15 20:05:31,15.10467287,0.000116,53.2175,312.5443,88.694,271.4186,-0.0001124,-2.163e-05,0.0,0 STARLINK-4648,1 53602U 22104Q   23105.83716970 -.00002163  00000-0 -11240-3 0  9992,2 53602  53.2175 312.5443 0001160  88.6940 271.4186 15.10467287 35835,6912.911,95.335,535.578,533.974,0.0
53602.0,STARLINK-4648,PAYLOAD,2023-04-16 13:33:37,15.10478537,0.0001061,53.217,309.2708,64.0699,296.0403,0.0002013,3.06e-05,0.0,0 STARLINK-4648,1 53602U 22104Q   23106.56501386  .00003060  00000-0  20130-3 0  9999,2 53602  53.2170 309.2708 0001061  64.0699 296.0403 15.10478537 35257,6912.877,95.334,535.475,534.008,0.0
53602.0,STARLINK-4648,PAYLOAD,2023-04-16 19:54:43,15.10495855,0.0001052,53.2168,308.077,78.5885,281.5226,0.00038799,6.176e-05,0.0,0 STARLINK-4648,1 53602U 22104Q   23106.82967528  .00006176  00000-0  38799-3 0  9993,2 53602  53.2168 308.0770 0001052  78.5885 281.5226 15.10495855 35295,6912.824,95.333,535.416,533.961,0.0
53602.0,STARLINK-4648,PAYLOAD,2023-04-17 13:22:50,15.10478949,0.0001,53.2166,304.8008,86.2858,273.8249,0.0002332,3.592e-05,0.0,0 STARLINK-4648,1 53602U 22104Q   23107.55753344  .00003592  00000-0  23320-3 0  9996,2 53602  53.2166 304.8008 0001000  86.2858 273.8249 15.10478949 36093,6912.875,95.334,535.432,534.049,0.0
53602.0,STARLINK-4648,PAYLOAD,2023-04-17 19:43:58,15.10490004,0.0001148,53.2164,303.6113,79.7917,280.3205,0.00025482,3.954e-05,0.0,0 STARLINK-4648,1 53602U 22104Q   23107.82220095  .00003954  00000-0  25482-3 0  9991,2 53602  53.2164 303.6113 0001148  79.7917 280.3205 15.10490004 35440,6912.842,95.333,535.5,533.913,0.0
53602.0,STARLINK-4648,PAYLOAD,2023-04-17 22:54:31,15.10497348,0.0001117,53.2163,303.0143,83.2522,276.8598,0.00041508,6.628e-05,0.0,0 STARLINK-4648,1 53602U 22104Q   23107.95453458  .00006628  00000-0  41508-3 0  9994,2 53602  53.2163 303.0143 0001117  83.2522 276.8598 15.10497348 36156,6912.819,95.333,535.456,533.912,0.0
53602.0,STARLINK-4648,PAYLOAD,2023-04-18 13:12:04,15.10480646,0.0001429,53.2159,300.3313,96.3571,263.7585,3.7495e-05,3.32e-06,0.0,0 STARLINK-4648,1 53602U 22104Q   23108.55004865  .00000332  00000-0  37495-4 0  9992,2 53602  53.2159 300.3313 0001429  96.3571 263.7585 15.10480646 35552,6912.87,95.334,535.723,533.747,0.0
53602.0,STARLINK-4648,PAYLOAD,2023-04-18 21:08:28,15.10485971,0.0001177,53.2162,298.8454,68.2087,291.9031,0.00018177,2.736e-05,0.0,0 STARLINK-4648,1 53602U 22104Q   23108.88088820  .00002736  00000-0  18177-3 0  9996,2 53602  53.2162 298.8454 0001177  68.2087 291.9031 15.10485971 36290,6912.854,95.334,535.533,533.905,0.0
53602.0,STARLINK-4648,PAYLOAD,2023-04-19 13:01:18,15.10480332,0.0001131,53.2157,295.8666,85.9494,274.1628,0.0001452,2.126e-05,0.0,0 STARLINK-4648,1 53602U 22104Q   23109.54257121  .00002126  00000-0  14520-3 0  9993,2 53602  53.2157 295.8666 0001131  85.9494 274.1628 15.10480332 36396,6912.871,95.334,535.518,533.954,0.0
53602.0,STARLINK-4648,PAYLOAD,2023-04-19 19:22:25,15.10489376,0.0001254,53.2166,294.6773,84.6436,275.47,0.00033058,5.217e-05,0.0,0 STARLINK-4648,1 53602U 22104Q   23109.80724102  .00005217  00000-0  33058-3 0  9991,2 53602  53.2166 294.6773 0001254  84.6436 275.4700 15.10489376 36437,6912.843,95.333,535.575,533.842,0.0
53602.0,STARLINK-4648,PAYLOAD,2023-04-20 12:50:32,15.10476975,0.0001222,53.2167,291.4014,93.3114,266.8018,1.6884e-05,-1.1e-07,0.0,0 STARLINK-4648,1 53602U 22104Q   23110.53509309 -.00000011  00000-0  16884-4 0  9990,2 53602  53.2167 291.4014 0001222  93.3114 266.8018 15.10476975 36545,6912.881,95.334,535.591,533.902,0.0
53602.0,STARLINK-4648,PAYLOAD,2023-04-20 19:11:39,15.1048214,0.0001225,53.2159,290.2094,97.3599,262.7533,0.00011871,1.684e-05,0.0,0 STARLINK-4648,1 53602U 22104Q   23110.79976350  .00001684  00000-0  11871-3 0  9998,2 53602  53.2159 290.2094 0001225  97.3599 262.7533 15.10482140 36587,6912.866,95.334,535.577,533.884,0.0
53602.0,STARLINK-4648,PAYLOAD,2023-04-21 12:39:46,15.10472861,0.0001146,53.2165,286.935,105.2795,254.8324,-1.2788e-05,-5.05e-06,0.0,0 STARLINK-4648,1 53602U 22104Q   23111.52761742 -.00000505  00000-0 -12788-4 0  9999,2 53602  53.2165 286.9350 0001146 105.2795 254.8324 15.10472861 36691,6912.894,95.334,535.551,533.967,0.0
53602.0,STARLINK-4648,PAYLOAD,2023-04-22 04:32:35,15.10481259,0.0001087,53.2152,283.9557,82.6302,277.4814,0.00016717,2.492e-05,0.0,0 STARLINK-4648,1 53602U 22104Q   23112.18929733  .00002492  00000-0  16717-3 0  9998,2 53602  53.2152 283.9557 0001087  82.6302 277.4814 15.10481259 36796,6912.868,95.334,535.485,533.982,0.0
53602.0,STARLINK-4648,PAYLOAD,2023-04-22 18:50:07,15.10478884,0.0001101,53.2164,281.2765,83.9692,276.1426,0.00012896,1.855e-05,0.0,0 STARLINK-4648,1 53602U 22104Q   23112.78481290  .00001855  00000-0  12896-3 0  9991,2 53602  53.2164 281.2765 0001101  83.9692 276.1426 15.10478884 36193,6912.876,95.334,535.502,533.979,0.0
53602.0,STARLINK-4648,PAYLOAD,2023-04-23 10:42:57,15.10470664,0.0001052,53.2183,278.2989,93.7729,266.3384,6.0229e-05,7.1e-06,0.0,0 STARLINK-4648,1 53602U 22104Q   23113.44650195  .00000710  00000-0  60229-4 0  9990,2 53602  53.2183 278.2989 0001052  93.7729 266.3384 15.10470664 36982,6912.901,95.335,535.493,534.038,0.0
53602.0,STARLINK-4648,PAYLOAD,2023-04-24 04:11:02,15.10505282,0.0001225,53.217,275.0219,81.869,278.2441,0.00053391,8.614e-05,0.0,0 STARLINK-4648,1 53602U 22104Q   23114.17433984  .00008614  00000-0  53391-3 0  9998,2 53602  53.2170 275.0219 0001225  81.8690 278.2441 15.10505282 36404,6912.795,95.332,535.507,533.813,0.0
53602.0,STARLINK-4648,PAYLOAD,2023-04-24 10:32:10,15.10520843,8.32e-05,53.217,273.83,73.1471,286.9613,0.0010394,0.00017074,0.0,0 STARLINK-4648,1 53602U 22104Q   23114.43900593  .00017074  00000-0  10394-2 0  9997,2 53602  53.2170 273.8300 0000832  73.1471 286.9613 15.10520843 37133,6912.747,95.331,535.188,534.037,0.0
53602.0,STARLINK-4648,PAYLOAD,2023-04-25 04:00:25,15.10225433,0.0001055,53.2181,270.5571,55.7109,304.3984,-0.0056459,-0.00092437,0.0,0 STARLINK-4648,1 53602U 22104Q   23115.16696486 -.00092437  00000-0 -56459-2 0  9991,2 53602  53.2181 270.5571 0001055  55.7109 304.3984 15.10225433 36559,6913.649,95.35,536.243,534.785,0.0
53602.0,STARLINK-4648,PAYLOAD,2023-04-25 10:21:43,15.10069427,0.000114,53.2172,269.3626,120.8576,239.2529,-0.0069524,-0.0011295,0.0,0 STARLINK-4648,1 53602U 22104Q   23115.43175275 -.00112950  00000-0 -69524-2 0  9999,2 53602  53.2172 269.3626 0001140 120.8576 239.2529 15.10069427 36597,6914.125,95.36,536.778,535.202,0.0
53602.0,STARLINK-4648,PAYLOAD,2023-04-25 18:18:24,15.09743546,0.0001207,53.2169,267.875,30.6301,329.4762,-0.012091,-0.00192333,0.0,0 STARLINK-4648,1 53602U 22104Q   23115.76277990 -.00192333  00000-0 -12091-1 0  9991,2 53602  53.2169 267.8750 0001207  30.6301 329.4762 15.09743546 36648,6915.12,95.38,537.82,536.15,0.0
53602.0,STARLINK-4648,PAYLOAD,2023-04-26 14:00:01,15.08852407,0.000167,53.2163,264.1923,90.404,49.9261,-0.0022385,-0.0003575,0.0,0 STARLINK-4648,1 53602U 22104Q   23116.58334491 -.00035750  00000-0 -22385-2 0  9999,2 53602  53.2163 264.1923 0001670  90.4040  49.9261 15.08852407  1301,6917.842,95.437,540.863,538.552,0.0
53602.0,STARLINK-4648,PAYLOAD,2023-04-27 00:00:00,15.08819336,0.0001484,53.216,262.3222,76.284,168.53,0.0006964,0.00010806,0.0,0 STARLINK-4648,1 53602U 22104Q   23117.00001157  .00010806  00000-0  69640-3 0  9996,2 53602  53.2160 262.3222 0001484  76.2840 168.5300 15.08819336  1309,6917.944,95.439,540.835,538.782,0.0
53602.0,STARLINK-4648,PAYLOAD,2023-04-27 06:00:02,15.08804616,0.0001382,53.2161,261.1987,83.3564,80.2072,0.0046865,0.00075019,0.0,0 STARLINK-4648,1 53602U 22104Q   23117.25002315  .00075019  00000-0  46865-2 0  9990,2 53602  53.2161 261.1987 0001382  83.3564  80.2072 15.08804616 36864,6917.989,95.44,540.81,538.897,0.0
53602.0,STARLINK-4648,PAYLOAD,2023-04-27 14:00:01,15.08897172,0.0001438,53.2162,259.7035,82.775,92.3656,-0.0060578,-0.0009557,0.0,0 STARLINK-4648,1 53602U 22104Q   23117.58335648 -.00095570  00000-0 -60578-2 0  9997,2 53602  53.2162 259.7035 0001438  82.7750  92.3656 15.08897172  1306,6917.706,95.434,540.565,538.576,0.0
53602.0,STARLINK-4648,PAYLOAD,2023-04-27 22:00:00,15.08816562,0.0001472,53.2158,258.2076,86.5526,100.1653,0.0012834,0.00020183,0.0,0 STARLINK-4648,1 53602U 22104Q   23117.91667824  .00020183  00000-0  12834-2 0  9996,2 53602  53.2158 258.2076 0001472  86.5526 100.1653 15.08816562 36960,6917.952,95.439,540.835,538.799,0.0
53602.0,STARLINK-4648,PAYLOAD,2023-04-28 14:00:01,15.08879067,0.0001368,53.2158,255.2146,94.7975,115.096,-0.0047994,-0.00075946,0.0,0 STARLINK-4648,1 53602U 22104Q   23118.58334491 -.00075946  00000-0 -47994-2 0  9995,2 53602  53.2158 255.2146 0001368  94.7975 115.0960 15.08879067  1303,6917.761,95.435,540.572,538.68,0.0
53602.0,STARLINK-4648,PAYLOAD,2023-04-29 06:00:00,15.08800186,0.0001121,53.2153,252.2205,98.6531,134.4313,0.0039315,0.00062771,0.0,0 STARLINK-4648,1 53602U 22104Q   23119.25001157  .00062771  00000-0  39315-2 0  9998,2 53602  53.2153 252.2205 0001121  98.6531 134.4313 15.08800186 37165,6918.002,95.44,540.643,539.092,0.0
53602.0,STARLINK-4648,PAYLOAD,2023-04-29 14:00:01,15.08860681,0.0001136,53.2153,250.7256,94.0218,150.6945,-0.0033224,-0.00052805,0.0,0 STARLINK-4648,1 53602U 22104Q   23119.58335648 -.00052805  00000-0 -33224-2 0  9991,2 53602  53.2153 250.7256 0001136  94.0218 150.6945 15.08860681  1306,6917.817,95.436,540.468,538.896,0.0
53602.0,STARLINK-4648,PAYLOAD,2023-04-29 19:16:45,15.0884375,0.00013,53.2155,249.7366,90.7573,269.3568,0.00026928,4.001e-05,0.0,0 STARLINK-4648,1 53602U 22104Q   23119.80330618  .00004001  00000-0  26928-3 0  9995,2 53602  53.2155 249.7366 0001300  90.7573 269.3568 15.08843750 37258,6917.869,95.437,540.633,538.835,0.0
